[{"OBJECT_NAME":"STARLINK-5670","OBJECT_ID":"2023-013L","EPOCH":"2026-03-09T01:40:48.302400","MEAN_MOTION":15.02534119,"ECCENTRICITY":0.00010549,"INCLINATION":43.003,"RA_OF_ASC_NODE":303.9234,"ARG_OF_PERICENTER":272.6238,"MEAN_ANOMALY":87.4484,"EPHEMERIS_TYPE":0,"CLASSIFICATION_TYPE":"U","NORAD_CAT_ID":55341,"ELEMENT_SET_NO":999,"REV_AT_EPOCH":17161,"BSTAR":-6.1967083e-5,"MEAN_MOTION_DOT":-1.04e-5,"MEAN_MOTION_DDOT":0},{"OBJECT_NAME":"COSMOS 2151","OBJECT_ID":"1991-042A","EPOCH":"2026-03-09T21:12:10.736640","MEAN_MOTION":15.00104908,"ECCENTRICITY":0.00139956,"INCLINATION":82.493,"RA_OF_ASC_NODE":83.4892,"ARG_OF_PERICENTER":63.3058,"MEAN_ANOMALY":296.9597,"EPHEMERIS_TYPE":0,"CLASSIFICATION_TYPE":"U","NORAD_CAT_ID":21422,"ELEMENT_SET_NO":999,"REV_AT_EPOCH":86322,"BSTAR":0.00015116122,"MEAN_MOTION_DOT":1.915e-5,"MEAN_MOTION_DDOT":0}]
